<?xml version="1.0" encoding="utf-8" ?>
<kml xmlns="http://www.opengis.net/kml/2.2">
<Document id="root_doc">
<Schema name="375mm_sirusa_2" id="375mm_sirusa_2">
	<SimpleField name="fid" type="float"></SimpleField>
</Schema>
<Folder><name>375mm_sirusa_2</name>
  <Placemark id="375mm_sirusa_2.1">
	<Style><LineStyle><color>ff0000ff</color></LineStyle><PolyStyle><fill>0</fill></PolyStyle></Style>
	<ExtendedData><SchemaData schemaUrl="#375mm_sirusa_2">
		<SimpleData name="fid">1</SimpleData>
	</SchemaData></ExtendedData>
      <Polygon><outerBoundaryIs><LinearRing><coordinates>101.851851393825,2.51632041590042 101.845118692111,2.51456187440793 101.844666495727,2.513707725683 101.84491771594,2.51270284483014 101.845319668281,2.51099454738029 101.847128453816,2.51049210695386 101.847530406158,2.50838185716286 101.848371993872,2.50621298932211 101.848836751266,2.50579847597031 101.849464801799,2.50505737634133 101.84986675414,2.50401481245649 101.851164725242,2.50210135183251 101.854430588014,2.50187525364061 101.857671328764,2.50172452151269 101.859530358342,2.50298062257876 101.860158408875,2.50355842906915 101.859831822598,2.50476428609258 101.859806700577,2.50634697343583 101.860284018982,2.50790453875775 101.856917668125,2.51204967227579 101.851851393825,2.51632041590042</coordinates></LinearRing></outerBoundaryIs></Polygon>
  </Placemark>
  <Placemark id="375mm_sirusa_2.2">
	<Style><LineStyle><color>ff0000ff</color></LineStyle><PolyStyle><fill>0</fill></PolyStyle></Style>
	<ExtendedData><SchemaData schemaUrl="#375mm_sirusa_2">
		<SimpleData name="fid">2</SimpleData>
	</SchemaData></ExtendedData>
      <Polygon><outerBoundaryIs><LinearRing><coordinates>101.851851393825,2.51632041590042 101.845118692111,2.51456187440793 101.844666495727,2.513707725683 101.84491771594,2.51270284483014 101.845319668281,2.51099454738029 101.847128453816,2.51049210695386 101.847530406158,2.50838185716286 101.848371993872,2.50621298932211 101.848836751266,2.50579847597031 101.849464801799,2.50505737634133 101.84986675414,2.50401481245649 101.851164725242,2.50210135183251 101.854430588014,2.50187525364061 101.857671328764,2.50172452151269 101.859530358342,2.50298062257876 101.860158408875,2.50355842906915 101.859831822598,2.50476428609258 101.859806700577,2.50634697343583 101.860284018982,2.50790453875775 101.856917668125,2.51204967227579 101.851851393825,2.51632041590042</coordinates></LinearRing></outerBoundaryIs></Polygon>
  </Placemark>
  <Placemark id="375mm_sirusa_2.3">
	<Style><LineStyle><color>ff0000ff</color></LineStyle><PolyStyle><fill>0</fill></PolyStyle></Style>
	<ExtendedData><SchemaData schemaUrl="#375mm_sirusa_2">
		<SimpleData name="fid">3</SimpleData>
	</SchemaData></ExtendedData>
      <Polygon><outerBoundaryIs><LinearRing><coordinates>101.859195398058,2.50270428034422 101.85999930274,2.50220183991779 101.860803207422,2.50277964640819 101.859672716463,2.50313135470669 101.859195398058,2.50270428034422</coordinates></LinearRing></outerBoundaryIs></Polygon>
  </Placemark>
</Folder>
</Document></kml>
