<?xml version="1.0" encoding="UTF-8"?>
<kml xmlns="http://www.opengis.net/kml/2.2" xmlns:gx="http://www.google.com/kml/ext/2.2" xmlns:kml="http://www.opengis.net/kml/2.2" xmlns:atom="http://www.w3.org/2005/Atom">
<Document id="root_doc">
	<name>LOJI LINGGI SUPPLY_SIRUSA 3_S3 300mm Desa Permai.kml</name>
	<atom:link rel="app" href="https://www.google.com/earth/about/versions/#earth-pro" title="Google Earth Pro 7.3.7.1327"></atom:link>
	<Schema name="300mm_sirusa_3_desa_permai" id="300mm_sirusa_3_desa_permai">
		<SimpleField type="float" name="fid">
		</SimpleField>
	</Schema>
	<StyleMap id="msn_ylw-pushpin">
		<Pair>
			<key>normal</key>
			<styleUrl>#sn_ylw-pushpin</styleUrl>
		</Pair>
		<Pair>
			<key>highlight</key>
			<styleUrl>#sh_ylw-pushpin</styleUrl>
		</Pair>
	</StyleMap>
	<Style id="sh_ylw-pushpin">
		<IconStyle>
			<scale>1.3</scale>
			<Icon>
				<href>http://maps.google.com/mapfiles/kml/pushpin/ylw-pushpin.png</href>
			</Icon>
			<hotSpot x="20" y="2" xunits="pixels" yunits="pixels"/>
		</IconStyle>
		<BalloonStyle>
		</BalloonStyle>
		<PolyStyle>
			<fill>0</fill>
		</PolyStyle>
	</Style>
	<Style id="sn_ylw-pushpin">
		<IconStyle>
			<scale>1.1</scale>
			<Icon>
				<href>http://maps.google.com/mapfiles/kml/pushpin/ylw-pushpin.png</href>
			</Icon>
			<hotSpot x="20" y="2" xunits="pixels" yunits="pixels"/>
		</IconStyle>
		<BalloonStyle>
		</BalloonStyle>
		<PolyStyle>
			<fill>0</fill>
		</PolyStyle>
	</Style>
	<Document>
		<name>300mm_sirusa_3_desa_permai_2.kml</name>
		<StyleMap id="msn_ylw-pushpin0">
			<Pair>
				<key>normal</key>
				<styleUrl>#sn_ylw-pushpin0</styleUrl>
			</Pair>
			<Pair>
				<key>highlight</key>
				<styleUrl>#sh_ylw-pushpin0</styleUrl>
			</Pair>
		</StyleMap>
		<Style id="sh_ylw-pushpin0">
			<IconStyle>
				<scale>1.3</scale>
				<Icon>
					<href>http://maps.google.com/mapfiles/kml/pushpin/ylw-pushpin.png</href>
				</Icon>
				<hotSpot x="20" y="2" xunits="pixels" yunits="pixels"/>
			</IconStyle>
			<PolyStyle>
				<fill>0</fill>
			</PolyStyle>
		</Style>
		<Style id="sn_ylw-pushpin0">
			<IconStyle>
				<scale>1.1</scale>
				<Icon>
					<href>http://maps.google.com/mapfiles/kml/pushpin/ylw-pushpin.png</href>
				</Icon>
				<hotSpot x="20" y="2" xunits="pixels" yunits="pixels"/>
			</IconStyle>
			<PolyStyle>
				<fill>0</fill>
			</PolyStyle>
		</Style>
		<Placemark>
			<name>300mm_sirusa_3_desa_permai_2</name>
			<styleUrl>#msn_ylw-pushpin0</styleUrl>
			<Polygon>
				<tessellate>1</tessellate>
				<outerBoundaryIs>
					<LinearRing>
						<coordinates>
							101.8177325861495,2.555131921108705,0 101.8174984258908,2.55439147194592,0 101.8173421728945,2.553832794273238,0 101.8172380315517,2.553572896725625,0 101.8176809096854,2.553404475997469,0 101.8186300190731,2.55310603934822,0 101.8193185173036,2.553096167044941,0 101.8195773048082,2.554378900022586,0 101.8195901455309,2.554702275618163,0 101.8177325861495,2.555131921108705,0 
						</coordinates>
					</LinearRing>
				</outerBoundaryIs>
			</Polygon>
		</Placemark>
	</Document>
	<Folder>
		<name>300mm_sirusa_3_desa_permai</name>
		<Placemark id="300mm_sirusa_3_desa_permai.1">
			<Style>
				<LineStyle>
					<color>ff0000ff</color>
				</LineStyle>
				<PolyStyle>
					<fill>0</fill>
				</PolyStyle>
			</Style>
			<ExtendedData>
				<SchemaData schemaUrl="#300mm_sirusa_3_desa_permai">
					<SimpleData name="fid">1</SimpleData>
				</SchemaData>
			</ExtendedData>
			<Polygon>
				<outerBoundaryIs>
					<LinearRing>
						<coordinates>
							101.820697470509,2.55309277460966,0 101.819389729733,2.55291831612826,0 101.818845419271,2.55288063309628,0 101.818657004111,2.55284713706785,0 101.818418344908,2.55303973923131,0 101.817305997631,2.55344308724031,0 101.81706594276,2.55357567568617,0 101.817032970107,2.55358247956694,0 101.816998950703,2.55357515231072,0 101.815464064984,2.55392598831682,0 101.812416973148,2.55458858162917,0 101.810952568655,2.55480176989344,0 101.810826958548,2.55486666844852,0 101.809766948815,2.55490644498228,0 101.807976306962,2.55509765147789,0 101.807842322849,2.55511439949211,0 101.807381752458,2.55509765147789,0 101.807097036216,2.55519813956318,0 101.80697142611,2.55472082115807,0 101.806134025399,2.55226305007212,0 101.8058995532,2.5517606096457,0 101.805436889307,2.550651053704,0 101.805269409165,2.55028469089306,0 101.804851406644,2.54914373242471,0 101.804621121448,2.54875015409068,0 101.804604373434,2.54846962485259,0 101.80496445574,2.54805929850434,0 101.807337091087,2.54761687179551,0 101.807454327186,2.54819886528946,0 101.808086564723,2.54862593965192,0 101.809172394311,2.54931121256686,0 101.809364996474,2.55095251795986,0 101.809498980588,2.55153869845736,0 101.810833239054,2.55202997354098,0 101.811159825331,2.55211371361205,0 101.811419419551,2.55142704502926,0 101.8115952737,2.55079062048912,0 101.811729257814,2.55043891219062,0 101.812223324234,2.54971874757941,0 101.812457796433,2.54998671580683,0 101.812533162496,2.55061476633987,0 101.813069098951,2.5505310262688,0 101.818185617294,2.54963779884404,0 101.820295867085,2.54749405302461,0 101.823611973899,2.54618770791589,0 101.820697470509,2.55309277460966,0 
						</coordinates>
					</LinearRing>
				</outerBoundaryIs>
			</Polygon>
		</Placemark>
		<Placemark id="300mm_sirusa_3_desa_permai.2">
			<Style>
				<LineStyle>
					<color>ff0000ff</color>
				</LineStyle>
				<PolyStyle>
					<fill>0</fill>
				</PolyStyle>
			</Style>
			<ExtendedData>
				<SchemaData schemaUrl="#300mm_sirusa_3_desa_permai">
					<SimpleData name="fid">2</SimpleData>
				</SchemaData>
			</ExtendedData>
			<Polygon>
				<outerBoundaryIs>
					<LinearRing>
						<coordinates>
							101.801850720763,2.54512700034899,0 101.80108031211,2.54593090503127,0 101.798769086148,2.54609838517342,0 101.798400629835,2.54368667112656,0 101.797462741039,2.54000210799942,0 101.798249897707,2.54004118669925,0 101.798869574233,2.54112980762318,0 101.800360147498,2.54009143074189,0 101.800512973128,2.54040824734411,0 101.801107527633,2.54142568920763,0 101.802099847475,2.54158898234622,0 101.802194055055,2.54227617430445,0 101.802124969496,2.54344277816956,0 101.801850720763,2.54512700034899,0 
						</coordinates>
					</LinearRing>
				</outerBoundaryIs>
			</Polygon>
		</Placemark>
		<Placemark id="300mm_sirusa_3_desa_permai.3">
			<Style>
				<LineStyle>
					<color>ff0000ff</color>
				</LineStyle>
				<PolyStyle>
					<fill>0</fill>
				</PolyStyle>
			</Style>
			<ExtendedData>
				<SchemaData schemaUrl="#300mm_sirusa_3_desa_permai">
					<SimpleData name="fid">3</SimpleData>
				</SchemaData>
			</ExtendedData>
			<Polygon>
				<outerBoundaryIs>
					<LinearRing>
						<coordinates>
							101.820697470509,2.55309277460966,0 101.819389729733,2.55291831612826,0 101.818845419271,2.55288063309628,0 101.818657004111,2.55284713706785,0 101.818418344908,2.55303973923131,0 101.817305997631,2.55344308724031,0 101.81706594276,2.55357567568617,0 101.817032970107,2.55358247956694,0 101.816998950703,2.55357515231072,0 101.815464064984,2.55392598831682,0 101.812416973148,2.55458858162917,0 101.810952568655,2.55480176989344,0 101.810826958548,2.55486666844852,0 101.809766948815,2.55490644498228,0 101.807976306962,2.55509765147789,0 101.807842322849,2.55511439949211,0 101.807381752458,2.55509765147789,0 101.807097036216,2.55519813956318,0 101.80697142611,2.55472082115807,0 101.806134025399,2.55226305007212,0 101.8058995532,2.5517606096457,0 101.805436889307,2.550651053704,0 101.805269409165,2.55028469089306,0 101.804851406644,2.54914373242471,0 101.804621121448,2.54875015409068,0 101.804604373434,2.54846962485259,0 101.80496445574,2.54805929850434,0 101.807337091087,2.54761687179551,0 101.807454327186,2.54819886528946,0 101.808086564723,2.54862593965192,0 101.809172394311,2.54931121256686,0 101.809364996474,2.55095251795986,0 101.809498980588,2.55153869845736,0 101.810833239054,2.55202997354098,0 101.811159825331,2.55211371361205,0 101.811419419551,2.55142704502926,0 101.8115952737,2.55079062048912,0 101.811729257814,2.55043891219062,0 101.812223324234,2.54971874757941,0 101.812457796433,2.54998671580683,0 101.812533162496,2.55061476633987,0 101.813069098951,2.5505310262688,0 101.818185617294,2.54963779884404,0 101.820295867085,2.54749405302461,0 101.823611973899,2.54618770791589,0 101.820697470509,2.55309277460966,0 
						</coordinates>
					</LinearRing>
				</outerBoundaryIs>
			</Polygon>
		</Placemark>
		<Placemark id="300mm_sirusa_3_desa_permai.4">
			<Style>
				<LineStyle>
					<color>ff0000ff</color>
				</LineStyle>
				<PolyStyle>
					<fill>0</fill>
				</PolyStyle>
			</Style>
			<ExtendedData>
				<SchemaData schemaUrl="#300mm_sirusa_3_desa_permai">
					<SimpleData name="fid">4</SimpleData>
				</SchemaData>
			</ExtendedData>
			<Polygon>
				<outerBoundaryIs>
					<LinearRing>
						<coordinates>
							101.801850720763,2.54512700034899,0 101.80108031211,2.54593090503127,0 101.798769086148,2.54609838517342,0 101.798400629835,2.54368667112656,0 101.797462741039,2.54000210799942,0 101.798249897707,2.54004118669925,0 101.798869574233,2.54112980762318,0 101.800360147498,2.54009143074189,0 101.800512973128,2.54040824734411,0 101.801107527633,2.54142568920763,0 101.802099847475,2.54158898234622,0 101.802194055055,2.54227617430445,0 101.802124969496,2.54344277816956,0 101.801850720763,2.54512700034899,0 
						</coordinates>
					</LinearRing>
				</outerBoundaryIs>
			</Polygon>
		</Placemark>
		<Placemark>
			<name>300mm_sirusa_3_desa_permai_2</name>
			<styleUrl>#msn_ylw-pushpin</styleUrl>
			<Polygon>
				<tessellate>1</tessellate>
				<outerBoundaryIs>
					<LinearRing>
						<coordinates>
							101.8177325861495,2.555131921108705,0 101.8174984258908,2.55439147194592,0 101.8173421728945,2.553832794273238,0 101.8172380315517,2.553572896725625,0 101.8176809096854,2.553404475997469,0 101.8186300190731,2.55310603934822,0 101.8193185173036,2.553096167044941,0 101.8195773048082,2.554378900022586,0 101.8195901455309,2.554702275618163,0 101.8177325861495,2.555131921108705,0 
						</coordinates>
					</LinearRing>
				</outerBoundaryIs>
			</Polygon>
		</Placemark>
	</Folder>
</Document>
</kml>
