<?xml version="1.0" encoding="utf-8" ?>
<kml xmlns="http://www.opengis.net/kml/2.2">
<Document id="root_doc">
<Schema name="prv_pengkalan_kempas" id="prv_pengkalan_kempas">
	<SimpleField name="fid" type="float"></SimpleField>
</Schema>
<Folder><name>prv_pengkalan_kempas</name>
  <Placemark id="prv_pengkalan_kempas.1">
	<Style><LineStyle><color>ff0000ff</color></LineStyle><PolyStyle><fill>0</fill></PolyStyle></Style>
	<ExtendedData><SchemaData schemaUrl="#prv_pengkalan_kempas">
		<SimpleData name="fid">1</SimpleData>
	</SchemaData></ExtendedData>
      <Polygon><outerBoundaryIs><LinearRing><coordinates>102.019463384844,2.51908698115945 102.016259692731,2.520663401088 102.006394355114,2.51781567476546 102.000648050213,2.51400175558348 102.000088675399,2.51344238077012 102.000097150775,2.51216259900016 102.000224281415,2.51127692221235 102.000535751481,2.51090188682612 102.001398120985,2.50967083846794 102.001754086775,2.50836139288212 102.00296182785,2.50595862379747 102.003203376065,2.50476359578712 102.00338135896,2.50256423572551 102.003523321507,2.49929062176097 102.00377970163,2.49636026052282 102.003601718735,2.49626491254327 102.003131335369,2.49580088570946 102.002336768873,2.49484528706998 101.994293637087,2.49411640473742 101.994395341598,2.49248913255311 101.999683976197,2.49223487127431 102.001667214172,2.48857350885961 102.003447043124,2.4849121464449 102.006447326213,2.48292890847027 102.007159257794,2.47550447912935 101.990852634447,2.47753856935974 101.981495819387,2.47794538740582 101.977427638926,2.4643169828622 101.986581044963,2.45312948659506 102.013261528485,2.44641698883477 102.015371897099,2.44468801213893 102.018168771166,2.44331500123342 102.019643486583,2.44140804164243 102.022236951627,2.44153517228183 102.024686335279,2.45958772307654 102.023872699187,2.48877691788265 102.018312852557,2.50420210212977 102.019463384844,2.51908698115945</coordinates></LinearRing></outerBoundaryIs></Polygon>
  </Placemark>
</Folder>
</Document></kml>
