<?xml version="1.0" encoding="utf-8" ?>
<kml xmlns="http://www.opengis.net/kml/2.2">
<Document id="root_doc">
<Schema name="450mm_sirusa_3" id="450mm_sirusa_3">
	<SimpleField name="fid" type="float"></SimpleField>
</Schema>
<Folder><name>450mm_sirusa_3</name>
  <Placemark id="450mm_sirusa_3.1">
	<Style><LineStyle><color>ff0000ff</color></LineStyle><PolyStyle><fill>0</fill></PolyStyle></Style>
	<ExtendedData><SchemaData schemaUrl="#450mm_sirusa_3">
		<SimpleData name="fid">1</SimpleData>
	</SchemaData></ExtendedData>
      <Polygon><outerBoundaryIs><LinearRing><coordinates>101.82403922272,2.51397778741221 101.840402032608,2.49309301368701 101.841821426812,2.49352008804947 101.841256181332,2.4950148483181 101.841172441261,2.49579363097906 101.843722326426,2.49767778257817 101.845782332174,2.49982571540115 101.848570876541,2.50029047279559 101.849362220212,2.5011823045525 101.848256851274,2.50251377168254 101.849651123457,2.5039959709405 101.849249171116,2.50486268067609 101.848985389892,2.50547817019846 101.848658803615,2.5058173174863 101.846841644073,2.50641605899446 101.846238715561,2.50835045463621 101.846816522052,2.5103350943206 101.845359444815,2.51073704666175 101.844907248431,2.51264632028217 101.844354563962,2.51445510581731 101.84355065928,2.51664072167228 101.840561138743,2.5159624270966 101.837245031928,2.51480681411581 101.83423038937,2.51578657294735 101.832622580005,2.51654023358699 101.832371359792,2.5171431620987 101.832386014304,2.51785076569926 101.832279245714,2.51827155955639 101.832496969898,2.51912780178309 101.833413923677,2.52012012162529 101.832584896973,2.52097427035022 101.828829154785,2.52157719886193 101.827975006061,2.52135110067004 101.827372077549,2.51978097433745 101.827095735314,2.51852487327138 101.825613536056,2.51777121263174 101.824558411161,2.51704267401342 101.822674259562,2.51553535273413 101.82403922272,2.51397778741221</coordinates></LinearRing></outerBoundaryIs></Polygon>
  </Placemark>
  <Placemark id="450mm_sirusa_3.2">
	<Style><LineStyle><color>ff0000ff</color></LineStyle><PolyStyle><fill>0</fill></PolyStyle></Style>
	<ExtendedData><SchemaData schemaUrl="#450mm_sirusa_3">
		<SimpleData name="fid">2</SimpleData>
	</SchemaData></ExtendedData>
      <Polygon><outerBoundaryIs><LinearRing><coordinates>101.82403922272,2.51397778741221 101.840402032608,2.49309301368701 101.841821426812,2.49352008804947 101.841256181332,2.4950148483181 101.841172441261,2.49579363097906 101.843722326426,2.49767778257817 101.845782332174,2.49982571540115 101.848570876541,2.50029047279559 101.849362220212,2.5011823045525 101.848256851274,2.50251377168254 101.849651123457,2.5039959709405 101.849249171116,2.50486268067609 101.848985389892,2.50547817019846 101.848658803615,2.5058173174863 101.846841644073,2.50641605899446 101.846238715561,2.50835045463621 101.846816522052,2.5103350943206 101.845359444815,2.51073704666175 101.844907248431,2.51264632028217 101.844354563962,2.51445510581731 101.84355065928,2.51664072167228 101.840561138743,2.5159624270966 101.837245031928,2.51480681411581 101.83423038937,2.51578657294735 101.832622580005,2.51654023358699 101.832371359792,2.5171431620987 101.832386014304,2.51785076569926 101.832279245714,2.51827155955639 101.832496969898,2.51912780178309 101.833413923677,2.52012012162529 101.832584896973,2.52097427035022 101.828829154785,2.52157719886193 101.827975006061,2.52135110067004 101.827372077549,2.51978097433745 101.827095735314,2.51852487327138 101.825613536056,2.51777121263174 101.824558411161,2.51704267401342 101.822674259562,2.51553535273413 101.82403922272,2.51397778741221</coordinates></LinearRing></outerBoundaryIs></Polygon>
  </Placemark>
</Folder>
</Document></kml>
