<?xml version="1.0" encoding="utf-8" ?>
<kml xmlns="http://www.opengis.net/kml/2.2">
<Document id="root_doc">
<Schema name="900mm_sirusa_2" id="900mm_sirusa_2">
	<SimpleField name="fid" type="float"></SimpleField>
</Schema>
<Folder><name>900mm_sirusa_2</name>
  <Placemark id="900mm_sirusa_2.1">
	<Style><LineStyle><color>ff0000ff</color></LineStyle><PolyStyle><fill>0</fill></PolyStyle></Style>
	<ExtendedData><SchemaData schemaUrl="#900mm_sirusa_2">
		<SimpleData name="fid">1</SimpleData>
	</SchemaData></ExtendedData>
      <Polygon><outerBoundaryIs><LinearRing><coordinates>101.863983236621,2.50764703803921 101.860767617892,2.5077475261245 101.86016468938,2.50706923154882 101.859913469167,2.50543630016293 101.860114445338,2.5042304431395 101.860365665551,2.50332605037193 101.858355903845,2.50096458036772 101.860390787572,2.49202114077729 101.864033480664,2.48905674226137 101.864996491481,2.48669945926071 101.865285394726,2.48580134699847 101.864939966933,2.48668061774472 101.864418684991,2.48653616612212 101.864167464778,2.48614677479164 101.86373410991,2.48540358166088 101.864613380656,2.48524028852229 101.86526655321,2.48564224086343 101.865568017466,2.48599394916193 101.867577779172,2.48639590150307 101.867531722133,2.48789903577881 101.866376109152,2.48983343142055 101.865120008086,2.49237075557402 101.865094886065,2.49546076419655 101.865295862235,2.49829955260587 101.865346106278,2.49945516558665 101.869340507668,2.49872662696833 101.881826152265,2.49418791511626 101.901421328896,2.49659962916312 101.932472147249,2.49850890278355 101.959118237864,2.49752076994491 101.958716285523,2.50194224569747 101.95771140467,2.50646420953533 101.957897726328,2.50797153081461 101.957345041859,2.5086937889276 101.896685827876,2.51233438851743 101.863983236621,2.50764703803921</coordinates></LinearRing></outerBoundaryIs></Polygon>
  </Placemark>
  <Placemark id="900mm_sirusa_2.2">
	<Style><LineStyle><color>ff0000ff</color></LineStyle><PolyStyle><fill>0</fill></PolyStyle></Style>
	<ExtendedData><SchemaData schemaUrl="#900mm_sirusa_2">
		<SimpleData name="fid">2</SimpleData>
	</SchemaData></ExtendedData>
      <Polygon><outerBoundaryIs><LinearRing><coordinates>101.85270554255,2.50146492729237 101.850595292759,2.50166590346294 101.848384554882,2.49910345728815 101.843335028597,2.49651588909205 101.842974946291,2.49430515121576 101.846768371511,2.49347612451216 101.851918385882,2.49654101111337 101.853501073225,2.50008321611969 101.85270554255,2.50146492729237</coordinates></LinearRing></outerBoundaryIs></Polygon>
  </Placemark>
  <Placemark id="900mm_sirusa_2.3">
	<Style><LineStyle><color>ff0000ff</color></LineStyle><PolyStyle><fill>0</fill></PolyStyle></Style>
	<ExtendedData><SchemaData schemaUrl="#900mm_sirusa_2">
		<SimpleData name="fid">3</SimpleData>
	</SchemaData></ExtendedData>
      <Polygon><outerBoundaryIs><LinearRing><coordinates>101.863983236621,2.50764703803921 101.860767617892,2.5077475261245 101.86016468938,2.50706923154882 101.859913469167,2.50543630016293 101.860114445338,2.5042304431395 101.860365665551,2.50332605037193 101.858355903845,2.50096458036772 101.860390787572,2.49202114077729 101.864033480664,2.48905674226137 101.864996491481,2.48669945926071 101.865285394726,2.48580134699847 101.864939966933,2.48668061774472 101.864418684991,2.48653616612212 101.864167464778,2.48614677479164 101.86373410991,2.48540358166088 101.864613380656,2.48524028852229 101.86526655321,2.48564224086343 101.865568017466,2.48599394916193 101.867577779172,2.48639590150307 101.867531722133,2.48789903577881 101.866376109152,2.48983343142055 101.865120008086,2.49237075557402 101.865094886065,2.49546076419655 101.865295862235,2.49829955260587 101.865346106278,2.49945516558665 101.869340507668,2.49872662696833 101.881826152265,2.49418791511626 101.901421328896,2.49659962916312 101.932472147249,2.49850890278355 101.959118237864,2.49752076994491 101.958716285523,2.50194224569747 101.95771140467,2.50646420953533 101.957897726328,2.50797153081461 101.957345041859,2.5086937889276 101.896685827876,2.51233438851743 101.863983236621,2.50764703803921</coordinates></LinearRing></outerBoundaryIs></Polygon>
  </Placemark>
  <Placemark id="900mm_sirusa_2.4">
	<Style><LineStyle><color>ff0000ff</color></LineStyle><PolyStyle><fill>0</fill></PolyStyle></Style>
	<ExtendedData><SchemaData schemaUrl="#900mm_sirusa_2">
		<SimpleData name="fid">4</SimpleData>
	</SchemaData></ExtendedData>
      <Polygon><outerBoundaryIs><LinearRing><coordinates>101.85270554255,2.50146492729237 101.850595292759,2.50166590346294 101.848384554882,2.49910345728815 101.843335028597,2.49651588909205 101.842974946291,2.49430515121576 101.846768371511,2.49347612451216 101.851918385882,2.49654101111337 101.853501073225,2.50008321611969 101.85270554255,2.50146492729237</coordinates></LinearRing></outerBoundaryIs></Polygon>
  </Placemark>
</Folder>
</Document></kml>
