<?xml version="1.0" encoding="utf-8" ?>
<kml xmlns="http://www.opengis.net/kml/2.2">
<Document id="root_doc">
<Schema name="sunggala_boundry" id="sunggala_boundry">
	<SimpleField name="fid" type="float"></SimpleField>
</Schema>
<Folder><name>sunggala_boundry</name>
  <Placemark id="sunggala_boundry.1">
	<Style><LineStyle><color>ff0000ff</color></LineStyle><PolyStyle><fill>0</fill></PolyStyle></Style>
	<ExtendedData><SchemaData schemaUrl="#sunggala_boundry">
		<SimpleData name="fid">1</SimpleData>
	</SchemaData></ExtendedData>
      <Polygon><outerBoundaryIs><LinearRing><coordinates>101.898322717404,2.45729442759777 101.899000747481,2.46922775694951 101.899407565527,2.47655048177898 101.892084840698,2.47749972388651 101.882795828646,2.47777093591723 101.875676512839,2.48278835848557 101.86888491157,2.48630281438367 101.867461048409,2.48599770084911 101.865754672715,2.48586350739641 101.865505708546,2.48586244797441 101.865449559181,2.48583278415855 101.865410360567,2.48575014924294 101.864949511999,2.48523209188739 101.863703631733,2.48525751801527 101.863601927221,2.48543550091043 101.863449370454,2.48628303850642 101.864257356296,2.48759107152958 101.863528473963,2.48904883619469 101.861816448019,2.48993027529453 101.858075982096,2.48603725260358 101.857025035477,2.48288441274648 101.855635073819,2.48040960296617 101.855194354269,2.48142664808137 101.854753634719,2.48403706387703 101.848210644478,2.48590164658822 101.84539681966,2.48834255486469 101.843972956498,2.49156319772948 101.842684699352,2.49281755337155 101.840752313633,2.49190221276788 101.844006858002,2.48539312403063 101.841746757746,2.47735846762058 101.843509635946,2.47335809016748 101.850357739721,2.47308687813676 101.852129093297,2.47517747087356 101.852841024878,2.47546563365619 101.853646185594,2.47528765076104 101.854400494054,2.47575379643883 101.855047447753,2.47569870649509 101.855424601983,2.47564785423933 101.856068730556,2.47517747087356 101.856246713451,2.47520713468942 101.856623867681,2.47561395273549 101.857581585165,2.47460962068424 101.858285041369,2.47499101260244 101.861734519385,2.47584137532375 101.866130414383,2.47521419750272 101.869181549728,2.46884071478083 101.876233062527,2.4626028380743 101.881860712165,2.45704299144456 101.880572455019,2.45439867414506 101.885928892625,2.45636496136777 101.898540252054,2.4582634455828 101.898322717404,2.45729442759777</coordinates></LinearRing></outerBoundaryIs></Polygon>
  </Placemark>
</Folder>
</Document></kml>
