<?xml version="1.0" encoding="UTF-8"?>
<kml xmlns="http://www.opengis.net/kml/2.2" xmlns:gx="http://www.google.com/kml/ext/2.2" xmlns:kml="http://www.opengis.net/kml/2.2" xmlns:atom="http://www.w3.org/2005/Atom">
<Folder>
	<name>Sirusa 4</name>
	<Document id="root_doc">
		<name>600mm_sirusa_4_1.kml</name>
		<Schema name="600mm_sirusa_4_1" id="600mm_sirusa_4_1">
			<SimpleField type="float" name="fid">
			</SimpleField>
		</Schema>
		<Folder>
			<name>600mm_sirusa_4_1</name>
			<Placemark id="600mm_sirusa_4_1.1">
				<Style>
					<LineStyle>
						<color>ff0000ff</color>
					</LineStyle>
					<PolyStyle>
						<fill>0</fill>
					</PolyStyle>
				</Style>
				<ExtendedData>
					<SchemaData schemaUrl="#600mm_sirusa_4_1">
						<SimpleData name="fid">1</SimpleData>
					</SchemaData>
				</ExtendedData>
				<Polygon>
					<outerBoundaryIs>
						<LinearRing>
							<coordinates>
								101.728713534936,2.63784502870484,0 101.735393037076,2.64653429255017,0 101.745520659789,2.65780472093912,0 101.74658465128,2.67009973372706,0 101.752771564766,2.68968505858478,0 101.769558986073,2.69796054796129,0 101.809044892527,2.68235533942274,0 101.8203941351,2.64026856487939,0 101.802660943579,2.62312647974235,0 101.794089901011,2.62105760739823,0 101.785026269789,2.61002362156289,0 101.779322093183,2.60627009602426,0 101.775568567644,2.60635876198187,0 101.766761082522,2.610772356316,0 101.759904248467,2.61083146695441,0 101.758722035699,2.61083146695441,0 101.757244269739,2.61313678185215,0 101.753815852712,2.62082116484461,0 101.75275186122,2.62992420315876,0 101.751372612991,2.63370728401659,0 101.746594503053,2.63413091025849,0 101.744939405178,2.63401268898168,0 101.744082300921,2.63324425068243,0 101.74301830943,2.6327122549368,0 101.73932389453,2.63232803578718,0 101.734269934946,2.63129359961511,0 101.728713534936,2.63784502870484,0 
							</coordinates>
						</LinearRing>
					</outerBoundaryIs>
				</Polygon>
			</Placemark>
			<Placemark id="600mm_sirusa_4_1.2">
				<Style>
					<LineStyle>
						<color>ff0000ff</color>
					</LineStyle>
					<PolyStyle>
						<fill>0</fill>
					</PolyStyle>
				</Style>
				<ExtendedData>
					<SchemaData schemaUrl="#600mm_sirusa_4_1">
						<SimpleData name="fid">2</SimpleData>
					</SchemaData>
				</ExtendedData>
				<Polygon>
					<outerBoundaryIs>
						<LinearRing>
							<coordinates>
								101.728713534936,2.63784502870484,0 101.735393037076,2.64653429255017,0 101.745520659789,2.65780472093912,0 101.74658465128,2.67009973372706,0 101.752771564766,2.68968505858478,0 101.769558986073,2.69796054796129,0 101.809044892527,2.68235533942274,0 101.8203941351,2.64026856487939,0 101.802660943579,2.62312647974235,0 101.794089901011,2.62105760739823,0 101.785026269789,2.61002362156289,0 101.779322093183,2.60627009602426,0 101.775568567644,2.60635876198187,0 101.766761082522,2.610772356316,0 101.759904248467,2.61083146695441,0 101.758722035699,2.61083146695441,0 101.757244269739,2.61313678185215,0 101.753815852712,2.62082116484461,0 101.75275186122,2.62992420315876,0 101.751372612991,2.63370728401659,0 101.746594503053,2.63413091025849,0 101.744939405178,2.63401268898168,0 101.744082300921,2.63324425068243,0 101.74301830943,2.6327122549368,0 101.73932389453,2.63232803578718,0 101.734269934946,2.63129359961511,0 101.728713534936,2.63784502870484,0 
							</coordinates>
						</LinearRing>
					</outerBoundaryIs>
				</Polygon>
			</Placemark>
		</Folder>
	</Document>
	<Document id="root_doc">
		<name>600mm_sirusa_4_2.kml</name>
		<Schema name="600mm_sirusa_4_2" id="600mm_sirusa_4_2">
			<SimpleField type="float" name="fid">
			</SimpleField>
		</Schema>
		<Folder>
			<name>600mm_sirusa_4_2</name>
			<Placemark id="600mm_sirusa_4_2.1">
				<Style>
					<LineStyle>
						<color>ff0000ff</color>
					</LineStyle>
					<PolyStyle>
						<fill>0</fill>
					</PolyStyle>
				</Style>
				<ExtendedData>
					<SchemaData schemaUrl="#600mm_sirusa_4_2">
						<SimpleData name="fid">1</SimpleData>
					</SchemaData>
				</ExtendedData>
				<Polygon>
					<outerBoundaryIs>
						<LinearRing>
							<coordinates>
								101.863419850788,2.57518708028549,0 101.862003882313,2.56952320638758,0 101.855883244391,2.5718070265077,0 101.852229132199,2.57135026248368,0 101.845743083058,2.57308596577498,0 101.844144408974,2.57409084662783,0 101.841906265256,2.577059812784,0 101.838960137301,2.57589506452273,0 101.839097166508,2.57317731857978,0 101.837165435323,2.57191360477998,0 101.836560222991,2.57184509017637,0 101.836532626832,2.57151441205481,0 101.836405589337,2.57142305925001,0 101.83631566392,2.5713602541967,0 101.836275697068,2.57119895940072,0 101.836000687062,2.57049811210135,0 101.832672019237,2.57151250887138,0 101.832333252586,2.57266964439892,0 101.832276157083,2.57319492302655,0 101.832938464918,2.5740170982698,0 101.833954764871,2.57507907462567,0 101.834628491806,2.57587841166772,0 101.835406893831,2.5770203217278,0 101.835829400553,2.57743140934942,0 101.836427000151,2.57923562724434,0 101.840195303349,2.58471679553269,0 101.842189839588,2.58843180959479,0 101.847396949462,2.59135509934858,0 101.856113529587,2.58590438199516,0 101.858351673305,2.58238729901014,0 101.855839471172,2.58218175519933,0 101.853555651052,2.58231878440654,0 101.851591565749,2.58215891699813,0 101.850723714103,2.58062875751763,0 101.847937453557,2.57992077328038,0 101.849794960588,2.5781698445216,0 101.85242896646,2.5770888363314,0 101.853593714721,2.57660923410617,0 101.855717667433,2.57583273526532,0 101.863419850788,2.57518708028549,0 
							</coordinates>
						</LinearRing>
					</outerBoundaryIs>
				</Polygon>
			</Placemark>
		</Folder>
	</Document>
	<Document id="root_doc">
		<name>600mm_sirusa_4_3.kml</name>
		<Schema name="600mm_sirusa_4_3" id="600mm_sirusa_4_3">
			<SimpleField type="float" name="fid">
			</SimpleField>
		</Schema>
		<Folder>
			<name>600mm_sirusa_4_3</name>
			<Placemark id="600mm_sirusa_4_3.1">
				<Style>
					<LineStyle>
						<color>ff0000ff</color>
					</LineStyle>
					<PolyStyle>
						<fill>0</fill>
					</PolyStyle>
				</Style>
				<ExtendedData>
					<SchemaData schemaUrl="#600mm_sirusa_4_3">
						<SimpleData name="fid">1</SimpleData>
					</SchemaData>
				</ExtendedData>
				<Polygon>
					<outerBoundaryIs>
						<LinearRing>
							<coordinates>
								101.821100131932,2.5749993224849,0 101.824156086906,2.57361238907385,0 101.825590035009,2.57333030092245,0 101.827693942471,2.57313048848188,0 101.828410916523,2.5730247054251,0 101.830738143772,2.57215493362495,0 101.831807728012,2.57219019464387,0 101.832107446673,2.57253692799664,0 101.832424795844,2.57346546816166,0 101.833359212845,2.57437050098074,0 101.833412104374,2.57493467728354,0 101.835034111244,2.57705621525553,0 101.835880375698,2.57783195767188,0 101.833435611719,2.58022970695878,0 101.829886002481,2.58215730932668,0 101.828851679259,2.58620057283008,0 101.829415855562,2.58911548372788,0 101.83221322973,2.60659711333271,0 101.822716261966,2.60894784792771,0 101.822011041588,2.60880680385201,0 101.821493879977,2.60758442186261,0 101.820365527371,2.60589189295421,0 101.819707321685,2.60537473134331,0 101.819801351068,2.60382324651061,0 101.818672998463,2.60260086452121,0 101.817544645857,2.60166057068321,0 101.816322263868,2.59832252755831,0 101.81364242643,2.5966770133418,0 101.811056618375,2.5963008958066,0 101.809176030699,2.595172543201,0 101.821100131932,2.5749993224849,0 
							</coordinates>
						</LinearRing>
					</outerBoundaryIs>
				</Polygon>
			</Placemark>
			<Placemark id="600mm_sirusa_4_3.2">
				<Style>
					<LineStyle>
						<color>ff0000ff</color>
					</LineStyle>
					<PolyStyle>
						<fill>0</fill>
					</PolyStyle>
				</Style>
				<ExtendedData>
					<SchemaData schemaUrl="#600mm_sirusa_4_3">
						<SimpleData name="fid">2</SimpleData>
					</SchemaData>
				</ExtendedData>
				<Polygon>
					<outerBoundaryIs>
						<LinearRing>
							<coordinates>
								101.821100131932,2.5749993224849,0 101.824156086906,2.57361238907385,0 101.825590035009,2.57333030092245,0 101.827693942471,2.57313048848188,0 101.828410916523,2.5730247054251,0 101.830738143772,2.57215493362495,0 101.831807728012,2.57219019464387,0 101.832107446673,2.57253692799664,0 101.832424795844,2.57346546816166,0 101.833359212845,2.57437050098074,0 101.833412104374,2.57493467728354,0 101.835034111244,2.57705621525553,0 101.835880375698,2.57783195767188,0 101.833435611719,2.58022970695878,0 101.829886002481,2.58215730932668,0 101.828851679259,2.58620057283008,0 101.829415855562,2.58911548372788,0 101.83221322973,2.60659711333271,0 101.822716261966,2.60894784792771,0 101.822011041588,2.60880680385201,0 101.821493879977,2.60758442186261,0 101.820365527371,2.60589189295421,0 101.819707321685,2.60537473134331,0 101.819801351068,2.60382324651061,0 101.818672998463,2.60260086452121,0 101.817544645857,2.60166057068321,0 101.816322263868,2.59832252755831,0 101.81364242643,2.5966770133418,0 101.811056618375,2.5963008958066,0 101.809176030699,2.595172543201,0 101.821100131932,2.5749993224849,0 
							</coordinates>
						</LinearRing>
					</outerBoundaryIs>
				</Polygon>
			</Placemark>
		</Folder>
	</Document>
	<Document id="root_doc">
		<name>600mm_sirusa_4_4.kml</name>
		<Schema name="600mmsirusa_4_4" id="600mmsirusa_4_4">
			<SimpleField type="float" name="fid">
			</SimpleField>
		</Schema>
		<Folder>
			<name>600mmsirusa_4_4</name>
			<Placemark id="600mmsirusa_4_4.1">
				<Style>
					<LineStyle>
						<color>ff0000ff</color>
					</LineStyle>
					<PolyStyle>
						<fill>0</fill>
					</PolyStyle>
				</Style>
				<ExtendedData>
					<SchemaData schemaUrl="#600mmsirusa_4_4">
						<SimpleData name="fid">1</SimpleData>
					</SchemaData>
				</ExtendedData>
				<Polygon>
					<outerBoundaryIs>
						<LinearRing>
							<coordinates>
								101.83264811563,2.56388426574151,0 101.830094630176,2.5616540062945,0 101.826776176506,2.56087826387815,0 101.823845594045,2.56161090949359,0 101.823673206841,2.5639165883422,0 101.823845594045,2.56609297678807,0 101.826345208497,2.56652394479716,0 101.827724306126,2.56751517121805,0 101.828609586245,2.56836274163592,0 101.830094630176,2.56997528026991,0 101.830207759279,2.57023655462542,0 101.830390920683,2.5703685385782,0 101.830922447894,2.57050860318115,0 101.831407286904,2.56940424765787,0 101.832353620824,2.56713807421011,0 101.832073491618,2.56689026760489,0 101.832008846417,2.56656704159807,0 101.832051943218,2.56608220258785,0 101.832192007821,2.56511252456741,0 101.832612201629,2.56453071775515,0 101.83264811563,2.56388426574151,0 
							</coordinates>
						</LinearRing>
					</outerBoundaryIs>
				</Polygon>
			</Placemark>
			<Placemark id="600mmsirusa_4_4.2">
				<Style>
					<LineStyle>
						<color>ff0000ff</color>
					</LineStyle>
					<PolyStyle>
						<fill>0</fill>
					</PolyStyle>
				</Style>
				<ExtendedData>
					<SchemaData schemaUrl="#600mmsirusa_4_4">
						<SimpleData name="fid">2</SimpleData>
					</SchemaData>
				</ExtendedData>
				<Polygon>
					<outerBoundaryIs>
						<LinearRing>
							<coordinates>
								101.83264811563,2.56388426574151,0 101.830094630176,2.5616540062945,0 101.826776176506,2.56087826387815,0 101.823845594045,2.56161090949359,0 101.823673206841,2.5639165883422,0 101.823845594045,2.56609297678807,0 101.826345208497,2.56652394479716,0 101.827724306126,2.56751517121805,0 101.828609586245,2.56836274163592,0 101.830094630176,2.56997528026991,0 101.830207759279,2.57023655462542,0 101.830390920683,2.5703685385782,0 101.830922447894,2.57050860318115,0 101.831407286904,2.56940424765787,0 101.832353620824,2.56713807421011,0 101.832073491618,2.56689026760489,0 101.832008846417,2.56656704159807,0 101.832051943218,2.56608220258785,0 101.832192007821,2.56511252456741,0 101.832612201629,2.56453071775515,0 101.83264811563,2.56388426574151,0 
							</coordinates>
						</LinearRing>
					</outerBoundaryIs>
				</Polygon>
			</Placemark>
		</Folder>
	</Document>
	<atom:link rel="app" href="https://www.google.com/earth/about/versions/#earth-pro" title="Google Earth Pro 7.3.7.1155"></atom:link>
</Folder>
</kml>
