<?xml version="1.0" encoding="utf-8" ?>
<kml xmlns="http://www.opengis.net/kml/2.2">
<Document id="root_doc">
<Schema name="telok_kemang_ke_arah_pd" id="telok_kemang_ke_arah_pd">
	<SimpleField name="fid" type="float"></SimpleField>
</Schema>
<Folder><name>telok_kemang_ke_arah_pd</name>
  <Placemark id="telok_kemang_ke_arah_pd.1">
	<Style><LineStyle><color>ff0000ff</color></LineStyle><PolyStyle><fill>0</fill></PolyStyle></Style>
	<ExtendedData><SchemaData schemaUrl="#telok_kemang_ke_arah_pd">
		<SimpleData name="fid">1</SimpleData>
	</SchemaData></ExtendedData>
      <Polygon><outerBoundaryIs><LinearRing><coordinates>101.854112331272,2.45631410911201 101.859299261359,2.4578396767848 101.862858919262,2.45872111588464 101.864570945206,2.45990201826839 101.866740641452,2.46485163782901 101.866345123907,2.46939443934354 101.863248786556,2.4741519503824 101.860163749707,2.47489778346688 101.858104233349,2.47466329806532 101.857477055528,2.47449379054612 101.856648587528,2.4754211379324 101.856555358392,2.4753575726127 101.856178910443,2.47510684274056 101.856118523389,2.47517570517023 101.856088859574,2.47517358632624 101.855924649164,2.47523927048993 101.855765029584,2.47537099195798 101.855534075589,2.47554261832116 101.855120901011,2.47560194595288 101.854176602873,2.4753879427099 101.853676555691,2.47506587842342 101.853193459261,2.47531166432626 101.852303544785,2.4749217970321 101.852549330688,2.4739047519169 101.853275387896,2.47097509696007 101.850359858565,2.46877149921049 101.847546033747,2.46629668943018 101.84846137435,2.46331335709227 101.854112331272,2.45631410911201</coordinates></LinearRing></outerBoundaryIs></Polygon>
  </Placemark>
</Folder>
</Document></kml>
