<?xml version="1.0" encoding="utf-8" ?>
<kml xmlns="http://www.opengis.net/kml/2.2">
<Document id="root_doc">
<Folder><name>loji_sawah_raja_sawah_raja_telok_kemang_arah_taman_gv_1__telok_kemang_ke_pasir_panjang</name>
  <Placemark id="loji_sawah_raja_sawah_raja_telok_kemang_arah_taman_gv_1__telok_kemang_ke_pasir_panjang.1">
	<Style><LineStyle><color>ff0000ff</color></LineStyle><PolyStyle><fill>0</fill></PolyStyle></Style>
      <Polygon><outerBoundaryIs><LinearRing><coordinates>101.868062405168,2.46356720105832 101.864015031014,2.45939334646175 101.859967656859,2.45774910071159 101.854781958724,2.45623133540374 101.852884752089,2.44623938046043 101.854149556513,2.43510910153624 101.855034919609,2.42524362703525 101.851872908551,2.41537815253426 101.851493467224,2.41133077838001 101.858196930667,2.40930709130289 101.875524751265,2.41335446545714 101.890828884786,2.41487223076498 101.901706202825,2.41626351563051 101.900694359286,2.42018440934244 101.895255700267,2.42347290084277 101.892852571863,2.42878507942022 101.892473130536,2.43435021888232 101.884251901785,2.43624742551712 101.877168997015,2.44155960409458 101.875904192592,2.44838954797988 101.880204527631,2.45306932434573 101.878433801438,2.45812854203855 101.874639388168,2.4621759161928 101.868062405168,2.46356720105832</coordinates></LinearRing></outerBoundaryIs></Polygon>
  </Placemark>
</Folder>
</Document></kml>
