<?xml version="1.0" encoding="UTF-8"?>
<kml xmlns="http://www.opengis.net/kml/2.2">
  <Document id="root_doc">
    <Folder>
      <name>bukit_kuau_lama</name>
      <Placemark id="bukit_kuau_lama.1">
        <Style>
          <LineStyle>
            <color>ff0000ff</color>
          </LineStyle>
          <PolyStyle>
            <fill>0</fill>
          </PolyStyle>
        </Style>
        <Polygon>
          <outerBoundaryIs>
            <LinearRing>
              <coordinates>
                101.955154729742,2.42515930674037,0
                101.952245679569,2.4278153960291,0
                101.951107355588,2.43312757460656,0
                101.948957188069,2.43945159672257,0
                101.947059981434,2.46348288076344,0
                101.940356517991,2.47284243349515,0
                101.916198753508,2.47183058995659,0
                101.909748250949,2.46285047855184,0
                101.907092161661,2.44729338414644,0
                101.906965681218,2.43780735097241,0
                101.897732608929,2.4355939432318,0
                101.895487581078,2.43142008863523,0
                101.893685234775,2.42930154122636,0
                101.894064676102,2.42474824530283,0
                101.896214843621,2.42266131800455,0
                101.902802366659,2.421723254724,0
                101.92139499168,2.42235565693561,0
                101.935855922252,2.41891960491923,0
                101.941168100829,2.41348094589946,0
                101.950148212234,2.41563111341891,0
                101.952930781965,2.42271401818885,0
                101.955154729742,2.42515930674037,0
              </coordinates>
            </LinearRing>
          </outerBoundaryIs>
        </Polygon>
      </Placemark>
      <Placemark id="bukit_kuau_lama.2">
        <Polygon>
          <outerBoundaryIs>
            <LinearRing>
              <coordinates>
                101.955154729742,2.42515930674037,0
                101.952245679569,2.4278153960291,0
                101.951107355588,2.43312757460656,0
                101.948957188069,2.43945159672257,0
                101.947059981434,2.46348288076344,0
                101.940356517991,2.47284243349515,0
                101.916198753508,2.47183058995659,0
                101.909748250949,2.46285047855184,0
                101.907092161661,2.44729338414644,0
                101.906965681218,2.43780735097241,0
                101.897732608929,2.4355939432318,0
                101.895487581078,2.43142008863523,0
                101.893685234775,2.42930154122636,0
                101.894064676102,2.42474824530283,0
                101.896214843621,2.42266131800455,0
                101.902802366659,2.421723254724,0
                101.92139499168,2.42235565693561,0
                101.935855922252,2.41891960491923,0
                101.941168100829,2.41348094589946,0
                101.950148212234,2.41563111341891,0
                101.952930781965,2.42271401818885,0
                101.955154729742,2.42515930674037,0
              </coordinates>
            </LinearRing>
          </outerBoundaryIs>
        </Polygon>
      </Placemark>
    </Folder>
  </Document>
</kml>
