<?xml version="1.0" encoding="UTF-8"?>
<kml xmlns="http://www.opengis.net/kml/2.2" xmlns:gx="http://www.google.com/kml/ext/2.2" xmlns:kml="http://www.opengis.net/kml/2.2" xmlns:atom="http://www.w3.org/2005/Atom">
<Folder>
	<name>Sirusa 5</name>
	<Document id="root_doc">
		<name>900mm_sirusa_5_5.kml</name>
		<Schema name="900mm_sirusa_5_5" id="900mm_sirusa_5_5">
			<SimpleField type="float" name="fid">
			</SimpleField>
		</Schema>
		<Folder>
			<name>900mm_sirusa_5_5</name>
			<Placemark id="900mm_sirusa_5_5.1">
				<Style>
					<LineStyle>
						<color>ff0000ff</color>
					</LineStyle>
					<PolyStyle>
						<fill>0</fill>
					</PolyStyle>
				</Style>
				<ExtendedData>
					<SchemaData schemaUrl="#900mm_sirusa_5_5">
						<SimpleData name="fid">1</SimpleData>
					</SchemaData>
				</ExtendedData>
				<Polygon>
					<outerBoundaryIs>
						<LinearRing>
							<coordinates>
								101.796601364157,2.56448477741131,0 101.799437264374,2.56172172600763,0 101.79999924093,2.56150317956893,0 101.802731071414,2.56169050508782,0 101.806087320294,2.55975480805925,0 101.808132290542,2.55834986666755,0 101.809022086757,2.55830043354451,0 101.812557855926,2.56061078161086,0 101.814087680997,2.56161765627492,0 101.815102360891,2.56265575185878,0 101.816744060925,2.56476316394634,0 101.81757922053,2.56530172481316,0 101.818515848124,2.56537977711269,0 101.824479043809,2.56623054717767,0 101.82430732875,2.56710473293251,0 101.821489640737,2.57106198451913,0 101.811035836085,2.58231712611265,0 101.806540023632,2.59436840116147,0 101.80860060434,2.59611677267115,0 101.814844788303,2.59805246969971,0 101.816593159812,2.60073746880386,0 101.815718974058,2.60698165276698,0 101.810473859529,2.61740943998538,0 101.808163511462,2.62696304144896,0 101.801170025423,2.62046909012731,0 101.791054447403,2.61484932456051,0 101.781063753062,2.6062323506914,0 101.775610499068,2.6054206067762,0 101.767867710954,2.60929200083333,0 101.764433409774,2.61029107026743,0 101.757127714537,2.61172723257895,0 101.75494225015,2.61678502158907,0 101.752132367366,2.62221746163699,0 101.750821088734,2.63314478357244,0 101.745693052655,2.63381343160516,0 101.744974971499,2.6337900159153,0 101.743900451508,2.63267646977521,0 101.741486033709,2.62969487193282,0 101.738239058049,2.62763429122499,0 101.733462257317,2.61822638738723,0 101.716727844296,2.60973429719738,0 101.713730635993,2.60049290493197,0 101.717976681088,2.5927501168177,0 101.733712024675,2.59225058210065,0 101.739206906563,2.60149197436607,0 101.749697135621,2.60224127644164,0 101.763933875057,2.59999337021492,0 101.780668288078,2.5877547696472,0 101.782666426946,2.57926267945736,0 101.789659912985,2.57526640172097,0 101.793406423363,2.57626547115507,0 101.796601364157,2.56448477741131,0 
							</coordinates>
						</LinearRing>
					</outerBoundaryIs>
				</Polygon>
			</Placemark>
		</Folder>
	</Document>
	<Document id="root_doc">
		<name>900mm_sirusa_5_4.kml</name>
		<Schema name="s5_900mm_4" id="s5_900mm_4">
			<SimpleField type="float" name="fid">
			</SimpleField>
		</Schema>
		<Folder>
			<name>s5_900mm_4</name>
			<Placemark id="s5_900mm_4.1">
				<Style>
					<LineStyle>
						<color>ff0000ff</color>
					</LineStyle>
					<PolyStyle>
						<fill>0</fill>
					</PolyStyle>
				</Style>
				<ExtendedData>
					<SchemaData schemaUrl="#s5_900mm_4">
						<SimpleData name="fid">1</SimpleData>
					</SchemaData>
				</ExtendedData>
				<Polygon>
					<outerBoundaryIs>
						<LinearRing>
							<coordinates>
								101.802850751607,2.52115404332225,0 101.801492641595,2.5204671830863,0 101.799338398128,2.52063889814529,0 101.798386160073,2.52149747344022,0 101.79888569479,2.52219994413607,0 101.799759230109,2.52229815994632,0 101.799977776548,2.52237816355335,0 101.799968020011,2.52303575417696,0 101.800001842674,2.52371025613215,0 101.802468295339,2.52379611366164,0 101.803030271896,2.52364000906256,0 101.803069298046,2.52208676830174,0 101.802850751607,2.52115404332225,0 
							</coordinates>
						</LinearRing>
					</outerBoundaryIs>
				</Polygon>
			</Placemark>
		</Folder>
	</Document>
	<Document id="root_doc">
		<name>900mm_sirusa_5_3.kml</name>
		<Schema name="900mm_sirusa_5_3" id="900mm_sirusa_5_3">
			<SimpleField type="float" name="fid">
			</SimpleField>
		</Schema>
		<Folder>
			<name>900mm_sirusa_5_3</name>
			<Placemark id="900mm_sirusa_5_3.1">
				<Style>
					<LineStyle>
						<color>ff0000ff</color>
					</LineStyle>
					<PolyStyle>
						<fill>0</fill>
					</PolyStyle>
				</Style>
				<ExtendedData>
					<SchemaData schemaUrl="#900mm_sirusa_5_3">
						<SimpleData name="fid">1</SimpleData>
					</SchemaData>
				</ExtendedData>
				<Polygon>
					<outerBoundaryIs>
						<LinearRing>
							<coordinates>
								101.823578985162,2.5455565166079,0 101.818965227012,2.54788767862079,0 101.816536933248,2.54950249397347,0 101.813768678358,2.55018241622723,0 101.812712370571,2.55015813328959,0 101.812372409444,2.54963605013046,0 101.812054707677,2.54965830948995,0 101.811496200111,2.55058106112006,0 101.810947810436,2.55192269342435,0 101.810025058806,2.55150988348457,0 101.809454409772,2.55097768243475,0 101.809411914631,2.55084412627776,0 101.809320853615,2.5500185063982,0 101.809223721864,2.5490289766896,0 101.807606882933,2.54809206001255,0 101.807426784479,2.54762056630681,0 101.807390360073,2.54745058574338,0 101.805641988563,2.54781482980789,0 101.804616034448,2.54806777707491,0 101.804531044166,2.54837131379534,0 101.804482478291,2.54883268961039,0 101.804767802808,2.54913622633082,0 101.805405229921,2.5510363662007,0 101.80592731308,2.55209267398779,0 101.806400830364,2.55384104549745,0 101.806795428101,2.55506126311358,0 101.806977550133,2.55619649044798,0 101.807123247759,2.55679142242002,0 101.807699967528,2.55772024478452,0 101.806856135445,2.55853979392968,0 101.804506761229,2.56022745809526,0 101.802685540906,2.55896474533828,0 101.801787072214,2.55702211032754,0 101.795983450119,2.55714352501571,0 101.79258383885,2.55573511463293,0 101.790932599091,2.55175271286091,0 101.792923799977,2.54825596984158,0 101.796760504123,2.54660473008245,0 101.799516617545,2.54637404217492,0 101.801532101369,2.54602193957923,0 101.802491277405,2.54473899104089,0 101.802394145655,2.54136366270973,0 101.801179998773,2.54109655039575,0 101.80047781716,2.54031949639145,0 101.800380685409,2.54000988893662,0 101.798828600979,2.54084663849593,0 101.798643443579,2.54068879940131,0 101.7982619991,2.53958696110615,0 101.797630642722,2.53907701941583,0 101.796367929965,2.53700082824809,0 101.795603017429,2.53582310577282,0 101.795433036866,2.53525245673842,0 101.794923095176,2.53322483144595,0 101.79498380252,2.53236278715993,0 101.79560301743,2.53194997722014,0 101.796817164311,2.53165858196853,0 101.79970683389,2.53061441565026,0 101.800747964841,2.52999216537337,0 101.801130421109,2.52971898232499,0 101.80173648276,2.52717837997499,0 101.802471041624,2.52657130653414,0 101.8044076059,2.52646000973665,0 101.806168118879,2.52670283911299,0 101.806884465539,2.52608362420331,0 101.807612953668,2.52704280023987,0 101.807782934231,2.52792912746352,0 101.807892207451,2.52856048384202,0 101.808254933832,2.52856453099829,0 101.808581235806,2.52967142823879,0 101.808453750383,2.5310950154576,0 101.808089506319,2.53263698199738,0 101.807421725534,2.5345553340705,0 101.808053081912,2.53800351121458,0 101.810384243925,2.53980044859952,0 101.813735289319,2.53946048747264,0 101.819951721353,2.54188878123607,0 101.823399898497,2.54227730823822,0 101.823578985162,2.5455565166079,0 
							</coordinates>
						</LinearRing>
					</outerBoundaryIs>
				</Polygon>
			</Placemark>
		</Folder>
	</Document>
	<Document id="root_doc">
		<name>900mm_sirusa_5_2.kml</name>
		<Schema name="900mm_sirusa_5_2" id="900mm_sirusa_5_2">
			<SimpleField type="float" name="fid">
			</SimpleField>
		</Schema>
		<Folder>
			<name>900mm_sirusa_5_2</name>
			<Placemark id="900mm_sirusa_5_2.1">
				<Style>
					<LineStyle>
						<color>ff0000ff</color>
					</LineStyle>
					<PolyStyle>
						<fill>0</fill>
					</PolyStyle>
				</Style>
				<ExtendedData>
					<SchemaData schemaUrl="#900mm_sirusa_5_2">
						<SimpleData name="fid">1</SimpleData>
					</SchemaData>
				</ExtendedData>
				<Polygon>
					<outerBoundaryIs>
						<LinearRing>
							<coordinates>
								101.854803301699,2.56839203939069,0 101.844473340029,2.57292323555336,0 101.841675945613,2.57624514142181,0 101.839621609089,2.57554579281793,0 101.839577899802,2.57353516558176,0 101.839140806924,2.57244243338819,0 101.837638300158,2.57195798878237,0 101.836882493724,2.57172123014043,0 101.836622969828,2.57167296780188,0 101.836553991108,2.57162038006507,0 101.836549893363,2.57158623218402,0 101.836543746744,2.57146125093939,0 101.836390764237,2.57140661432971,0 101.836166754137,2.57079468430133,0 101.83595822441,2.57033846861053,0 101.832406844781,2.57151861937955,0 101.831696568856,2.5719666395789,0 101.829773360195,2.57231631388083,0 101.828330953699,2.57275340675825,0 101.823238821678,2.57351831929373,0 101.821315613017,2.57347461000598,0 101.822138804603,2.57077920392859,0 101.824542815428,2.567326170197,0 101.825588195894,2.56647019664539,0 101.826637218799,2.566874507557,0 101.82748954991,2.567382628027,0 101.828093284447,2.5679235304628,0 101.828483936206,2.56833330503538,0 101.82969140528,2.56973200224311,0 101.830216827343,2.57027836833988,0 101.830358882529,2.57042861901649,0 101.830675774865,2.57051876942246,0 101.830992667201,2.57059526067601,0 101.832492442136,2.56698378077636,0 101.832219259088,2.56676523433765,0 101.832208331766,2.56617515895314,0 101.832470587493,2.56600032180217,0 101.834688833845,2.56618608627507,0 101.835173278451,2.55808165583965,0 101.840243555829,2.5539292735042,0 101.842822403806,2.55257428558421,0 101.849043692428,2.54916496114037,0 101.852147051858,2.55239944843324,0 101.8530649469,2.55572135430161,0 101.855862341316,2.56070421310415,0 101.854803301699,2.56839203939069,0 
							</coordinates>
						</LinearRing>
					</outerBoundaryIs>
				</Polygon>
			</Placemark>
		</Folder>
	</Document>
	<Document id="root_doc">
		<name>900mm_Sirusa 5_1.kml</name>
		<Schema name="900mm_sirusa_5_1" id="900mm_sirusa_5_1">
			<SimpleField type="float" name="fid">
			</SimpleField>
		</Schema>
		<Folder>
			<name>900mm_sirusa_5_1</name>
			<Placemark id="900mm_sirusa_5_1.1">
				<Style>
					<LineStyle>
						<color>ff0000ff</color>
					</LineStyle>
					<PolyStyle>
						<fill>0</fill>
					</PolyStyle>
				</Style>
				<ExtendedData>
					<SchemaData schemaUrl="#900mm_sirusa_5_1">
						<SimpleData name="fid">1</SimpleData>
					</SchemaData>
				</ExtendedData>
				<Polygon>
					<outerBoundaryIs>
						<LinearRing>
							<coordinates>
								101.876447656653,2.6092590026667,0 101.874788371103,2.61921471596641,0 101.871193252412,2.61967562861918,0 101.863818649968,2.61635705751927,0 101.85589095234,2.60787626470841,0 101.850728730629,2.60372805083353,0 101.849345992671,2.59543162308377,0 101.852941111362,2.58943975859783,0 101.855706587279,2.58778047304788,0 101.859578253562,2.58390880676466,0 101.859094295277,2.58200370113323,0 101.855499176585,2.58165801664366,0 101.852802837567,2.5812816046439,0 101.852341924914,2.57847003746204,0 101.853847572913,2.57677042205497,0 101.854602317382,2.57626917954509,0 101.857354350013,2.57580826689232,0 101.864433200171,2.57547794615784,0 101.869364965556,2.571836736201,0 101.871346889963,2.57607713260644,0 101.867751771271,2.57939570370634,0 101.867290858618,2.58225336215348,0 101.858487426951,2.59031933357686,0 101.871300798698,2.59944540410159,0 101.875172464981,2.60239524507928,0 101.874481096002,2.61207441078734,0 101.874757643593,2.61848109666076,0 101.876447656653,2.6092590026667,0 
							</coordinates>
						</LinearRing>
					</outerBoundaryIs>
				</Polygon>
			</Placemark>
		</Folder>
	</Document>
	<atom:link rel="app" href="https://www.google.com/earth/about/versions/#earth-pro" title="Google Earth Pro 7.3.7.1155"></atom:link>
</Folder>
</kml>
