<?xml version="1.0" encoding="UTF-8"?>
<kml xmlns="http://www.opengis.net/kml/2.2" xmlns:gx="http://www.google.com/kml/ext/2.2" xmlns:kml="http://www.opengis.net/kml/2.2" xmlns:atom="http://www.w3.org/2005/Atom">
<Document id="root_doc">
	<name>375mm_sirusa_2_pekan.kml</name>
	<open>1</open>
	<atom:link rel="app" href="https://www.google.com/earth/about/versions/#earth-pro" title="Google Earth Pro 7.3.7.1155"></atom:link>
	<Schema name="375mm_sirusa_2_pekan" id="375mm_sirusa_2_pekan">
		<SimpleField type="float" name="fid">
		</SimpleField>
	</Schema>
	<Folder>
		<name>375mm_sirusa_2_pekan</name>
		<Placemark id="375mm_sirusa_2_pekan.1">
			<Style>
				<LineStyle>
					<color>ff0000ff</color>
				</LineStyle>
				<PolyStyle>
					<fill>0</fill>
				</PolyStyle>
			</Style>
			<ExtendedData>
				<SchemaData schemaUrl="#375mm_sirusa_2_pekan">
					<SimpleData name="fid">1</SimpleData>
				</SchemaData>
			</ExtendedData>
			<Polygon>
				<outerBoundaryIs>
					<LinearRing>
						<coordinates>
							101.832865949587,2.5175838442227,0 101.832463997245,2.51708140379628,0 101.832966437672,2.51636542618861,0 101.835616810921,2.51574993666624,0 101.838053646989,2.51553639948501,0 101.839778692453,2.51684274459372,0 101.843773093844,2.51895299438472,0 101.845154805016,2.52030958353608,0 101.84389870395,2.52262080949765,0 101.840431865008,2.52267105354029,0 101.83533209468,2.52360056832919,0 101.834276969784,2.52249519939104,0 101.83400062755,2.51993275321626,0 101.832581233345,2.51839193590854,0 101.832380257174,2.51824748428594,0 101.832367696164,2.5179899835674,0 101.832865949587,2.5175838442227,0 
						</coordinates>
					</LinearRing>
				</outerBoundaryIs>
			</Polygon>
		</Placemark>
		<Placemark id="375mm_sirusa_2_pekan.2">
			<Style>
				<LineStyle>
					<color>ff0000ff</color>
				</LineStyle>
				<PolyStyle>
					<fill>0</fill>
				</PolyStyle>
			</Style>
			<ExtendedData>
				<SchemaData schemaUrl="#375mm_sirusa_2_pekan">
					<SimpleData name="fid">2</SimpleData>
				</SchemaData>
			</ExtendedData>
			<Polygon>
				<outerBoundaryIs>
					<LinearRing>
						<coordinates>
							101.823482874623,2.51660408539117,0 101.820292377915,2.51786018645724,0 101.819739693446,2.51984482614163,0 101.817252613335,2.5211009272077,0 101.814639923118,2.52306044487077,0 101.812605039391,2.52441703402213,0 101.8104947896,2.52454264412874,0 101.80954015279,2.5234372751906,0 101.808233807681,2.5241406917876,0 101.807480147041,2.52499484051252,0 101.807542952095,2.52593691631208,0 101.807769050286,2.52684130907965,0 101.807869538372,2.52734374950608,0 101.807897800646,2.52824814227365,0 101.808064234037,2.52846167945488,0 101.808773931139,2.52870033865744,0 101.809295213082,2.52861241158281,0 101.811763451677,2.52847424046554,0 101.813220528913,2.53015741589408,0 101.814451507958,2.53000668376615,0 101.818337047256,2.53015741589408,0 101.824826902764,2.53021603394383,0 101.827079510676,2.52200113297172,0 101.826953900569,2.51968990701015,0 101.825383774236,2.51778482039327,0 101.823482874623,2.51660408539117,0 
						</coordinates>
					</LinearRing>
				</outerBoundaryIs>
			</Polygon>
		</Placemark>
		<Placemark id="375mm_sirusa_2_pekan.3">
			<Style>
				<LineStyle>
					<color>ff0000ff</color>
				</LineStyle>
				<PolyStyle>
					<fill>0</fill>
				</PolyStyle>
			</Style>
			<ExtendedData>
				<SchemaData schemaUrl="#375mm_sirusa_2_pekan">
					<SimpleData name="fid">3</SimpleData>
				</SchemaData>
			</ExtendedData>
			<Polygon>
				<outerBoundaryIs>
					<LinearRing>
						<coordinates>
							101.79725129736,2.52116373226101,0 101.791674208627,2.52081202396251,0 101.788810298196,2.52362569035051,0 101.78926249458,2.53045888014994,0 101.792628845437,2.53417693930551,0 101.795392267782,2.53940231974037,0 101.797188492307,2.53903386342765,0 101.796887028051,2.53806666560678,0 101.795857025177,2.53643373422088,0 101.79535458475,2.53547909741067,0 101.79477677826,2.533609600324,0 101.794676290174,2.53320136747753,0 101.794217813285,2.53256703643916,0 101.794358077904,2.5320583155074,0 101.79597844828,2.53165636316626,0 101.797473208548,2.53106599566521,0 101.798138942113,2.53072684837737,0 101.800035654723,2.53027465199358,0 101.800774137475,2.52989415804565,0 101.800911000153,2.52988447559993,0 101.800930626733,2.52986759674186,0 101.801201211837,2.52933152944314,0 101.801414749019,2.52846481970755,0 101.801496395588,2.52788073271183,0 101.801695278257,2.52704542550289,0 101.801921376448,2.52641737496986,0 101.803353331664,2.52636713092721,0 101.804559188687,2.52630013887036,0 101.80553999427,2.52651472280248,0 101.805687586145,2.5264676190125,0 101.805759811956,2.52639853345387,0 101.806587791909,2.52565115331955,0 101.805991143903,2.52528688401039,0 101.802662476077,2.52388633132172,0 101.799899053732,2.52387377031106,0 101.799711685323,2.52364348511562,0 101.799900100483,2.52295891003461,0 101.799909521241,2.52239366455488,0 101.799378818541,2.52233399975424,0 101.798109109713,2.5222387454234,0 101.797983499606,2.52127154760252,0 101.79725129736,2.52116373226101,0 
						</coordinates>
					</LinearRing>
				</outerBoundaryIs>
			</Polygon>
		</Placemark>
		<Placemark id="375mm_sirusa_2_pekan.4">
			<Style>
				<LineStyle>
					<color>ff0000ff</color>
				</LineStyle>
				<PolyStyle>
					<fill>0</fill>
				</PolyStyle>
			</Style>
			<ExtendedData>
				<SchemaData schemaUrl="#375mm_sirusa_2_pekan">
					<SimpleData name="fid">4</SimpleData>
				</SchemaData>
			</ExtendedData>
			<Polygon>
				<outerBoundaryIs>
					<LinearRing>
						<coordinates>
							101.832865949587,2.5175838442227,0 101.832463997245,2.51708140379628,0 101.832966437672,2.51636542618861,0 101.835616810921,2.51574993666624,0 101.838053646989,2.51553639948501,0 101.839778692453,2.51684274459372,0 101.843773093844,2.51895299438472,0 101.845154805016,2.52030958353608,0 101.84389870395,2.52262080949765,0 101.840431865008,2.52267105354029,0 101.83533209468,2.52360056832919,0 101.834276969784,2.52249519939104,0 101.83400062755,2.51993275321626,0 101.832581233345,2.51839193590854,0 101.832380257174,2.51824748428594,0 101.832367696164,2.5179899835674,0 101.832865949587,2.5175838442227,0 
						</coordinates>
					</LinearRing>
				</outerBoundaryIs>
			</Polygon>
		</Placemark>
		<Placemark id="375mm_sirusa_2_pekan.5">
			<Style>
				<LineStyle>
					<color>ff0000ff</color>
				</LineStyle>
				<PolyStyle>
					<fill>0</fill>
				</PolyStyle>
			</Style>
			<ExtendedData>
				<SchemaData schemaUrl="#375mm_sirusa_2_pekan">
					<SimpleData name="fid">5</SimpleData>
				</SchemaData>
			</ExtendedData>
			<Polygon>
				<outerBoundaryIs>
					<LinearRing>
						<coordinates>
							101.823482874623,2.51660408539117,0 101.820292377915,2.51786018645724,0 101.819739693446,2.51984482614163,0 101.817252613335,2.5211009272077,0 101.814639923118,2.52306044487077,0 101.812605039391,2.52441703402213,0 101.8104947896,2.52454264412874,0 101.80954015279,2.5234372751906,0 101.808233807681,2.5241406917876,0 101.807480147041,2.52499484051252,0 101.807542952095,2.52593691631208,0 101.807769050286,2.52684130907965,0 101.807869538372,2.52734374950608,0 101.807897800646,2.52824814227365,0 101.808064234037,2.52846167945488,0 101.808773931139,2.52870033865744,0 101.809295213082,2.52861241158281,0 101.811763451677,2.52847424046554,0 101.813220528913,2.53015741589408,0 101.814451507958,2.53000668376615,0 101.818337047256,2.53015741589408,0 101.824826902764,2.53021603394383,0 101.827079510676,2.52200113297172,0 101.826953900569,2.51968990701015,0 101.825383774236,2.51778482039327,0 101.823482874623,2.51660408539117,0 
						</coordinates>
					</LinearRing>
				</outerBoundaryIs>
			</Polygon>
		</Placemark>
		<Placemark id="375mm_sirusa_2_pekan.6">
			<Style>
				<LineStyle>
					<color>ff0000ff</color>
				</LineStyle>
				<PolyStyle>
					<fill>0</fill>
				</PolyStyle>
			</Style>
			<ExtendedData>
				<SchemaData schemaUrl="#375mm_sirusa_2_pekan">
					<SimpleData name="fid">6</SimpleData>
				</SchemaData>
			</ExtendedData>
			<Polygon>
				<outerBoundaryIs>
					<LinearRing>
						<coordinates>
							101.79725129736,2.52116373226101,0 101.791674208627,2.52081202396251,0 101.788810298196,2.52362569035051,0 101.78926249458,2.53045888014994,0 101.792628845437,2.53417693930551,0 101.795392267782,2.53940231974037,0 101.797188492307,2.53903386342765,0 101.796887028051,2.53806666560678,0 101.795857025177,2.53643373422088,0 101.79535458475,2.53547909741067,0 101.79477677826,2.533609600324,0 101.794676290174,2.53320136747753,0 101.794217813285,2.53256703643916,0 101.794358077904,2.5320583155074,0 101.79597844828,2.53165636316626,0 101.797473208548,2.53106599566521,0 101.798138942113,2.53072684837737,0 101.800035654723,2.53027465199358,0 101.800774137475,2.52989415804565,0 101.800911000153,2.52988447559993,0 101.800930626733,2.52986759674186,0 101.801201211837,2.52933152944314,0 101.801414749019,2.52846481970755,0 101.801496395588,2.52788073271183,0 101.801695278257,2.52704542550289,0 101.801921376448,2.52641737496986,0 101.803353331664,2.52636713092721,0 101.804559188687,2.52630013887036,0 101.80553999427,2.52651472280248,0 101.805687586145,2.5264676190125,0 101.805759811956,2.52639853345387,0 101.806587791909,2.52565115331955,0 101.805991143903,2.52528688401039,0 101.802662476077,2.52388633132172,0 101.799899053732,2.52387377031106,0 101.799711685323,2.52364348511562,0 101.799900100483,2.52295891003461,0 101.799909521241,2.52239366455488,0 101.799378818541,2.52233399975424,0 101.798109109713,2.5222387454234,0 101.797983499606,2.52127154760252,0 101.79725129736,2.52116373226101,0 
						</coordinates>
					</LinearRing>
				</outerBoundaryIs>
			</Polygon>
		</Placemark>
	</Folder>
</Document>
</kml>
